NORAD_CAT_ID,OBJECT_NAME,OBJECT_TYPE,EPOCH,MEAN_MOTION,ECCENTRICITY,INCLINATION,RA_OF_ASC_NODE,ARG_OF_PERICENTER,MEAN_ANOMALY,BSTAR,MEAN_MOTION_DOT,MEAN_MOTION_DDOT,TLE_LINE0,TLE_LINE1,TLE_LINE2,SEMIMAJOR_AXIS,PERIOD,APOGEE,PERIGEE,DECAYED
50169.0,STARLINK-3301,PAYLOAD,2022-09-01 18:08:15,15.08828641,0.00021,53.2146,257.4275,46.3519,313.7647,-2.8455e-05,-7.41e-06,0.0,0 STARLINK-3301,1 50169U 21125P   22244.75573986 -.00000741  00000-0 -28455-4 0  9998,2 50169  53.2146 257.4275 0002100  46.3519 313.7647 15.08828641 42625,6917.915,95.438,541.2330000000002,538.327,0.0
50169.0,STARLINK-3301,PAYLOAD,2022-09-02 05:15:57,15.08832386,0.0002076,53.2142,255.3451,45.75100000000001,314.3652,-2.3692e-05,-6.65e-06,0.0,0 STARLINK-3301,1 50169U 21125P   22245.21942083 -.00000665  00000-0 -23692-4 0  9991,2 50169  53.2142 255.3451 0002076  45.7510 314.3652 15.08832386 39608,6917.904,95.438,541.205,538.3330000000002,0.0
50169.0,STARLINK-3301,PAYLOAD,2022-09-02 10:02:07,15.088262699999998,0.0002134999999999,53.2146,254.4532,49.2063,310.9114,6.9842e-05,8.23e-06,0.0,0 STARLINK-3301,1 50169U 21125P   22245.41814299  .00000823  00000-0  69842-4 0  9991,2 50169  53.2146 254.4532 0002135  49.2063 310.9114 15.08826270 42727,6917.922,95.438,541.264,538.31,0.0
50169.0,STARLINK-3301,PAYLOAD,2022-09-03 09:52:54,15.08832714,0.0002161,53.2144,249.993,47.8021,312.3155,0.00012736,1.739e-05,0.0,0 STARLINK-3301,1 50169U 21125P   22246.41174533  .00001739  00000-0  12736-3 0  9998,2 50169  53.2144 249.9930 0002161  47.8021 312.3155 15.08832714 39786,6917.903,95.438,541.263,538.273,0.0
50169.0,STARLINK-3301,PAYLOAD,2022-09-03 17:49:50,15.08836022,0.0002171,53.2146,248.506,48.451,311.6668,0.00013439,1.851e-05,0.0,0 STARLINK-3301,1 50169U 21125P   22246.74294465  .00001851  00000-0  13439-3 0  9997,2 50169  53.2146 248.5060 0002171  48.4510 311.6668 15.08836022 42925,6917.893,95.438,541.259,538.256,0.0
50169.0,STARLINK-3301,PAYLOAD,2022-09-04 06:32:55,15.08842869,0.0002204,53.2145,246.127,48.4828,311.6353,0.00014377,2.001e-05,0.0,0 STARLINK-3301,1 50169U 21125P   22247.27286104  .00002001  00000-0  14377-3 0  9997,2 50169  53.2145 246.1270 0002204  48.4828 311.6353 15.08842869 43007,6917.871999999999,95.437,541.261,538.212,0.0
50169.0,STARLINK-3301,PAYLOAD,2022-09-05 03:12:55,15.08860484,0.0002262,53.2137,242.2608,50.0453,310.0737,0.00033524,5.054e-05,0.0,0 STARLINK-3301,1 50169U 21125P   22248.13397275  .00005054  00000-0  33524-3 0  9991,2 50169  53.2137 242.2608 0002262  50.0453 310.0737 15.08860484 40040,6917.818,95.436,541.248,538.118,0.0
50169.0,STARLINK-3301,PAYLOAD,2022-09-05 09:34:28,15.08852457,0.0002371,53.2137,241.0714,48.4596,311.6599,0.00015427,2.169e-05,0.0,0 STARLINK-3301,1 50169U 21125P   22248.39893528  .00002169  00000-0  15427-3 0  9997,2 50169  53.2137 241.0714 0002371  48.4596 311.6599 15.08852457 43176,6917.842,95.437,541.3480000000002,538.067,0.0
50169.0,STARLINK-3301,PAYLOAD,2022-09-06 03:03:41,15.08850282,0.0002173,53.2142,237.8007,52.9272,307.1918,2.5016e-05,1.1e-06,0.0,0 STARLINK-3301,1 50169U 21125P   22249.12756846  .00000110  00000-0  25016-4 0  9990,2 50169  53.2142 237.8007 0002173  52.9272 307.1918 15.08850282 43282,6917.849,95.437,541.217,538.211,0.0
50169.0,STARLINK-3301,PAYLOAD,2022-09-06 15:46:46,15.08844608,0.0002242,53.2141,235.422,47.2641,312.8540000000001,-9.3559e-05,-1.777e-05,0.0,0 STARLINK-3301,1 50169U 21125P   22249.65748836 -.00001777  00000-0 -93559-4 0  9997,2 50169  53.2141 235.4220 0002242  47.2641 312.8540 15.08844608 43364,6917.866,95.437,541.2819999999998,538.18,0.0
50169.0,STARLINK-3301,PAYLOAD,2022-09-07 07:40:39,15.08838051,0.0002179,53.2147,232.4472,50.479,309.6395,-0.00014278,-2.56e-05,0.0,0 STARLINK-3301,1 50169U 21125P   22250.31989744 -.00002560  00000-0 -14278-3 0  9998,2 50169  53.2147 232.4472 0002179  50.4790 309.6395 15.08838051 40371,6917.886,95.438,541.259,538.244,0.0
50169.0,STARLINK-3301,PAYLOAD,2022-09-08 09:06:48,15.08838243,0.0002162,53.2147,227.6891,47.9977,312.1199,5.1994e-05,5.39e-06,0.0,0 STARLINK-3301,1 50169U 21125P   22251.37973326  .00000539  00000-0  51994-4 0  9993,2 50169  53.2147 227.6891 0002162  47.9977 312.1199 15.08838243 43627,6917.886,95.438,541.246,538.255,0.0
50169.0,STARLINK-3301,PAYLOAD,2022-09-08 21:49:53,15.08841848,0.000217,53.2146,225.3096,47.8246,312.2931,0.00013939,1.931e-05,0.0,0 STARLINK-3301,1 50169U 21125P   22251.90964828  .00001931  00000-0  13939-3 0  9992,2 50169  53.2146 225.3096 0002170  47.8246 312.2931 15.08841848 40611,6917.875,95.437,541.241,538.239,0.0
50169.0,STARLINK-3301,PAYLOAD,2022-09-09 07:22:12,15.08840499,0.0002089999999999,53.2151,223.5265,49.4109,310.7064,0.00017869,2.557e-05,0.0,0 STARLINK-3301,1 50169U 21125P   22252.30708825  .00002557  00000-0  17869-3 0  9991,2 50169  53.2151 223.5265 0002090  49.4109 310.7064 15.08840499 43762,6917.879,95.438,541.19,538.298,0.0
50169.0,STARLINK-3301,PAYLOAD,2022-09-10 04:02:13,15.08840437,0.0001736,53.2147,219.66,63.6005,296.5165,4.1744e-05,3.76e-06,0.0,0 STARLINK-3301,1 50169U 21125P   22253.16821006  .00000376  00000-0  41744-4 0  9990,2 50169  53.2147 219.6600 0001736  63.6005 296.5165 15.08840437 40802,6917.879,95.438,540.945,538.543,0.0
50169.0,STARLINK-3301,PAYLOAD,2022-09-10 07:12:59,15.08839555,0.0001979,53.2146,219.0653,50.6426,309.4742,3.2376e-05,2.27e-06,0.0,0 STARLINK-3301,1 50169U 21125P   22253.30069148  .00000227  00000-0  32376-4 0  9993,2 50169  53.2146 219.0653 0001979  50.6426 309.4742 15.08839555 43914,6917.882,95.438,541.116,538.378,0.0
50169.0,STARLINK-3301,PAYLOAD,2022-09-11 03:52:59,15.08850126,0.0002130999999999,53.2155,215.2003,46.0165,314.1002,7.1304e-06,-1.75e-06,0.0,0 STARLINK-3301,1 50169U 21125P   22254.16180268 -.00000175  00000-0  71304-5 0  9993,2 50169  53.2155 215.2003 0002131  46.0165 314.1002 15.08850126 40951,6917.849,95.437,541.189,538.24,0.0
50169.0,STARLINK-3301,PAYLOAD,2022-09-11 07:03:46,15.08849474,0.0002158,53.216,214.6058,49.3275,310.7905,1.9446e-05,2.1e-07,0.0,0 STARLINK-3301,1 50169U 21125P   22254.29428351  .00000021  00000-0  19446-4 0  9992,2 50169  53.2160 214.6058 0002158  49.3275 310.7905 15.08849474 44061,6917.851,95.437,541.2090000000002,538.224,0.0
50169.0,STARLINK-3301,PAYLOAD,2022-09-12 06:54:33,15.0884849,0.0002129,53.2162,210.1449,49.4385,310.6792,5.4391e-05,5.78e-06,0.0,0 STARLINK-3301,1 50169U 21125P   22255.28788262  .00000578  00000-0  54391-4 0  9997,2 50169  53.2162 210.1449 0002129  49.4385 310.6792 15.08848490 41123,6917.854,95.437,541.192,538.247,0.0
50169.0,STARLINK-3301,PAYLOAD,2022-09-12 21:13:01,15.08840743,0.0002336999999999,53.2159,207.4691,45.9877,314.1307,3.2279e-05,2.25e-06,0.0,0 STARLINK-3301,1 50169U 21125P   22255.88404975  .00000225  00000-0  32279-4 0  9999,2 50169  53.2159 207.4691 0002337  45.9877 314.1307 15.08840743 44302,6917.878000000002,95.438,541.36,538.126,0.0
50169.0,STARLINK-3301,PAYLOAD,2022-09-13 05:09:57,15.08835699,0.0001978,53.2161,205.9815,51.3036,308.8132,-3.8089e-05,-8.94e-06,0.0,0 STARLINK-3301,1 50169U 21125P   22256.21525365 -.00000894  00000-0 -38089-4 0  9993,2 50169  53.2161 205.9815 0001978  51.3036 308.8132 15.08835699 41266,6917.894,95.438,541.127,538.39,0.0
50169.0,STARLINK-3301,PAYLOAD,2022-09-13 06:45:20,15.08836593,0.0001896999999999,53.2144,205.6837,43.6718,316.4424,-3.474e-05,-8.41e-06,0.0,0 STARLINK-3301,1 50169U 21125P   22256.28148956 -.00000841  00000-0 -34740-4 0  9999,2 50169  53.2144 205.6837 0001897  43.6718 316.4424 15.08836593 44366,6917.891,95.438,541.068,538.443,0.0
50169.0,STARLINK-3301,PAYLOAD,2022-09-14 05:00:44,15.08837565,0.0002034,53.2157,201.5205,46.4892,313.6269,2.9288e-05,1.78e-06,0.0,0 STARLINK-3301,1 50169U 21125P   22257.20885343  .00000178  00000-0  29288-4 0  9992,2 50169  53.2157 201.5205 0002034  46.4892 313.6269 15.08837565 44504,6917.888000000001,95.438,541.16,538.346,0.0
50169.0,STARLINK-3301,PAYLOAD,2022-09-14 12:57:40,15.088544,0.0002045999999999,53.2158,200.0336,46.5223,313.5939,-0.00017298,-3.041e-05,0.0,0 STARLINK-3301,1 50169U 21125P   22257.54004684 -.00003041  00000-0 -17298-3 0  9991,2 50169  53.2158 200.0336 0002046  46.5223 313.5939 15.08854400 44551,6917.8359999999975,95.437,541.117,538.286,0.0
50169.0,STARLINK-3301,PAYLOAD,2022-09-15 04:51:32,15.08838105,0.0002032,53.2162,197.0598,46.8326,313.2835,0.00011979,1.619e-05,0.0,0 STARLINK-3301,1 50169U 21125P   22258.20245378  .00001619  00000-0  11979-3 0  9999,2 50169  53.2162 197.0598 0002032  46.8326 313.2835 15.08838105 41567,6917.886,95.438,541.1569999999998,538.345,0.0
50169.0,STARLINK-3301,PAYLOAD,2022-09-15 06:26:55,15.08835534,0.0001978,53.2163,196.7624,47.208,312.9078,0.00016051,2.267e-05,0.0,0 STARLINK-3301,1 50169U 21125P   22258.26869471  .00002267  00000-0  16051-3 0  9997,2 50169  53.2163 196.7624 0001978  47.2080 312.9078 15.08835534 44666,6917.894,95.438,541.127,538.391,0.0
50169.0,STARLINK-3301,PAYLOAD,2022-09-15 20:45:23,15.08838638,0.0001774,53.2159,194.0859,45.3711,314.7425,5.9097e-05,6.53e-06,0.0,0 STARLINK-3301,1 50169U 21125P   22258.86485586  .00000653  00000-0  59097-4 0  9999,2 50169  53.2159 194.0859 0001774  45.3711 314.7425 15.08838638 44750,6917.885,95.438,540.977,538.5219999999998,0.0
50169.0,STARLINK-3301,PAYLOAD,2022-09-15 23:56:10,15.08833678,0.0001875,53.2155,193.4909,44.2565,315.8576,4.5036e-05,4.29e-06,0.0,0 STARLINK-3301,1 50169U 21125P   22258.99733983  .00000429  00000-0  45036-4 0  9999,2 50169  53.2155 193.4909 0001875  44.2565 315.8576 15.08833678 41689,6917.9,95.438,541.062,538.4680000000002,0.0
50169.0,STARLINK-3301,PAYLOAD,2022-09-16 06:17:42,15.08831725,0.000185,53.2153,192.3017,42.8503,317.2633,1.2418e-05,-9.1e-07,0.0,0 STARLINK-3301,1 50169U 21125P   22259.26230306 -.00000091  00000-0  12418-4 0  9995,2 50169  53.2153 192.3017 0001850  42.8503 317.2633 15.08831725 44813,6917.906,95.438,541.05,538.491,0.0
